NAVSTAR 43 (USA 132)    
1 24876U 97035A   21058.21448377  .00000015  00000-0  00000-0 0  9999
2 24876  55.4663 174.2118 0047218  56.9501 303.4844  2.00562568173124
NAVSTAR 47 (USA 150)    
1 26360U 00025A   21058.43105772  .00000022  00000-0  00000-0 0  9993
2 26360  53.6942  98.5634 0058050 166.4038 331.7860  2.00562983152448
NAVSTAR 48 (USA 151)    
1 26407U 00040A   21058.48675434  .00000021  00000-0  00000-0 0  9993
2 26407  55.8026 292.0928 0181044 282.5753 216.7403  2.00564406151129
NAVSTAR 51 (USA 166)    
1 27663U 03005A   21058.35953080  .00000022  00000-0  00000-0 0  9995
2 27663  55.8557 291.8925 0120619  36.7787 136.2471  2.00565816132489
NAVSTAR 52 (USA 168)    
1 27704U 03010A   21058.35271146 -.00000037  00000-0  00000-0 0  9990
2 27704  54.7944  42.5987 0244481 291.9684  89.7819  2.00558688131281
NAVSTAR 53 (USA 175)    
1 28129U 03058A   21058.40531914  .00000022  00000-0  00000-0 0  9995
2 28129  53.5044 101.2310 0072006 300.1498  59.2234  2.00572308125968
NAVSTAR 54 (USA 177)    
1 28190U 04009A   21057.64388126 -.00000067  00000-0  00000-0 0  9990
2 28190  56.2210 352.7737 0088293 102.5369  68.3766  2.00570111124109
NAVSTAR 56 (USA 180)    
1 28474U 04045A   21057.77497602 -.00000035  00000-0  00000-0 0  9994
2 28474  55.1313  42.5850 0205862 271.6157 269.9560  2.00569731119596
NAVSTAR 57 (USA 183)    
1 28874U 05038A   21057.62483454 -.00000066  00000-0  00000-0 0  9999
2 28874  56.3096 350.1813 0137303 269.6816 268.8163  2.00577880112999
NAVSTAR 58 (USA 190)    
1 29486U 06042A   21058.24287289  .00000050  00000-0  00000-0 0  9994
2 29486  54.7966 228.1988 0099278  13.0585 170.6139  2.00554857105596
NAVSTAR 59 (USA 192)    
1 29601U 06052A   21057.92968633  .00000026  00000-0  00000-0 0  9990
2 29601  55.8495 290.8332 0082115  66.8971 294.0375  2.00550430104573
NAVSTAR 60 (USA 196)    
1 32260U 07047A   21056.75065474  .00000000  00000-0  00000-0 0  9993
2 32260  53.2163 160.2971 0128700  54.9495 306.2503  2.00574897 97990
NAVSTAR 61 (USA 199)    
1 32384U 07062A   21058.32010847 -.00000065  00000-0  00000-0 0  9998
2 32384  56.4130 350.8578 0013550 127.4909  56.7748  2.00563459 96683
NAVSTAR 62 (USA 201)    
1 32711U 08012A   21058.15334132  .00000050  00000-0  00000-0 0  9998
2 32711  54.5476 227.2464 0146568 225.9300 132.8265  2.00571742 94946
NAVSTAR 64 (USA 206)    
1 35752U 09043A   21057.17961176  .00000024  00000-0  00000-0 0  9997
2 35752  54.7361 104.7566 0058079  49.0187 347.5386  2.00545893 84517
NAVSTAR 65 (USA 213)    
1 36585U 10022A   21058.22975494  .00000029  00000-0  00000-0 0  9991
2 36585  55.1237 286.6748 0096615  53.4449 130.1200  2.00564821 78762
NAVSTAR 66 (USA 232)    
1 37753U 11036A   21058.10034742 -.00000026  00000-0  00000-0 0  9992
2 37753  56.3484  47.2678 0102864  46.0343 131.5380  2.00562293 70447
NAVSTAR 67 (USA 239)    
1 38833U 12053A   21057.83492481  .00000045  00000-0  00000-0 0  9999
2 38833  53.5945 222.8601 0107931  41.0468 319.7263  2.00570015 60718
NAVSTAR 68 (USA 242)    
1 39166U 13023A   21056.20531127 -.00000068  00000-0  00000-0 0  9994
2 39166  55.9591 346.7920 0090070  32.0490 328.5074  2.00563468 57012
NAVSTAR 69 (USA 248)    
1 39533U 14008A   21057.20223717  .00000052  00000-0  00000-0 0  9992
2 39533  53.7019 228.3462 0049695 199.6845 160.1018  2.00555101 50856
NAVSTAR 70 (USA 251)    
1 39741U 14026A   21057.97787856 -.00000026  00000-0  00000-0 0  9998
2 39741  56.3186  46.7997 0025289 296.7084  63.0464  2.00559037 49703
NAVSTAR 71 (USA 256)    
1 40105U 14045A   21056.56876164  .00000001  00000-0  00000-0 0  9992
2 40105  54.6133 165.8424 0016999 106.1310 254.0465  2.00576471 47245
NAVSTAR 72 (USA 258)    
1 40294U 14068A   21057.94261752  .00000028  00000-0  00000-0 0  9999
2 40294  55.4848 106.7685 0031120  45.0125 315.3272  2.00566759 46375
NAVSTAR 73 (USA 260)    
1 40534U 15013A   21054.09066327  .00000034  00000-0  00000-0 0  9998
2 40534  54.0358 284.5302 0056888  13.4005 346.8161  2.00553384 42910
NAVSTAR 74 (USA 262)    
1 40730U 15033A   21058.24344267 -.00000063  00000-0  00000-0 0  9994
2 40730  55.4686 345.7653 0062387 356.9636   3.0188  2.00577001 41161
NAVSTAR 75 (USA 265)    
1 41019U 15062A   21058.28663125  .00000029  00000-0  00000-0 0  9999
2 41019  55.4789 106.5874 0066270 213.5868 146.0776  2.00563865 39008
NAVSTAR 76 (USA 266)    
1 41328U 16007A   21056.38367096  .00000000  00000-0  00000-0 0  9998
2 41328  54.8430 166.4018 0047834 222.9780 136.6370  2.00567041 37007
NAVSTAR 77 (USA 289)    
1 43873U 18109A   21058.45115830  .00000016  00000-0  00000-0 0  9994
2 43873  55.0244 168.6387 0011952 199.7855 110.0874  2.00573455 16276
NAVSTAR 78 (USA 293)    
1 44506U 19056A   21058.49100285 -.00000028  00000-0  00000-0 0  9996
2 44506  55.4133  48.0020 0011958 184.9758  49.0552  2.00562639 11248
NAVSTAR 79 (USA 304)    
1 45854U 20041A   21058.24798895  .00000028  00000-0  00000-0 0  9991
2 45854  55.1910 105.2705 0009246 150.2717 209.8680  2.00566927  5200
